[{"OBJECT_NAME":"DMSP 5D-3 F18 (USA 210)","OBJECT_ID":"2009-057A","EPOCH":"2026-03-09T22:11:19.578624","MEAN_MOTION":14.14835918,"ECCENTRICITY":0.00111332,"INCLINATION":98.8964,"RA_OF_ASC_NODE":49.953,"ARG_OF_PERICENTER":167.567,"MEAN_ANOMALY":192.578,"EPHEMERIS_TYPE":0,"CLASSIFICATION_TYPE":"U","NORAD_CAT_ID":35951,"ELEMENT_SET_NO":999,"REV_AT_EPOCH":84555,"BSTAR":0.0001892164,"MEAN_MOTION_DOT":3.21e-6,"MEAN_MOTION_DDOT":0},{"OBJECT_NAME":"YAOGAN-40 02B","OBJECT_ID":"2025-096B","EPOCH":"2026-03-09T23:00:58.966848","MEAN_MOTION":14.12426787,"ECCENTRICITY":0.00021775,"INCLINATION":85.9909,"RA_OF_ASC_NODE":232.3937,"ARG_OF_PERICENTER":96.5499,"MEAN_ANOMALY":263.5932,"EPHEMERIS_TYPE":0,"CLASSIFICATION_TYPE":"U","NORAD_CAT_ID":63919,"ELEMENT_SET_NO":999,"REV_AT_EPOCH":4256,"BSTAR":0.00013302659,"MEAN_MOTION_DOT":2.64e-6,"MEAN_MOTION_DDOT":0}]
